RSW-01                  
1 49112U 21076A   25157.80907422  .00000047  00000+0  55448-4 0  9995
2 49112  86.4053 291.9315 0016329  41.3858 318.8520 13.42836431185506
PAYLOAD B               
1 49113U 21076B   25157.85413424  .00000157  00000+0  79540-4 0  9996
2 49113  86.4055 233.2466 0017782 305.6974  54.2553 14.09312404194560
RSW-02                  
1 49114U 21076C   25157.80244405  .00000044  00000+0  50507-4 0  9990
2 49114  86.4052 291.9191 0019840  37.3085 322.9433 13.42860251185503
TJS-7                   
1 49115U 21077A   25157.84759156 -.00000108  00000+0  00000+0 0  9990
2 49115   0.3943  88.7232 0001260  31.3021 341.0509  1.00274277 14052
GAOFEN-5 02             
1 49122U 21079A   25157.86423470  .00000237  00000+0  61670-4 0  9996
2 49122  98.1417 232.2498 0002356  52.8921 307.2493 14.57745734199401
CHINASAT 9B             
1 49125U 21080A   25157.64082525 -.00000299  00000+0  00000+0 0  9993
2 49125   0.0160  21.0781 0001908  72.3274 133.9793  1.00274641 13882
STARLINK-3096           
1 49131U 21082B   25157.37311899  .00000518  00000+0  51202-4 0  9999
2 49131  69.9990 231.1340 0003775 269.1505  90.9221 14.98328942205578
STARLINK-3090           
1 49132U 21082C   25157.71989870 -.00001132  00000+0 -87112-4 0  9992
2 49132  69.9993 270.1441 0003104 269.5421  90.5383 14.98327850204643
STARLINK-3077           
1 49133U 21082D   25157.60306803 -.00000405  00000+0 -26114-4 0  9997
2 49133  69.9991 270.5642 0003472 268.4845  91.5916 14.98330488204627
STARLINK-3078           
1 49134U 21082E   25157.59889505  .00001446  00000+0  12897-3 0  9997
2 49134  69.9989 270.5784 0003125 267.7407  92.3394 14.98328561205824
STARLINK-3073           
1 49135U 21082F   25157.36894414  .00000532  00000+0  52346-4 0  9997
2 49135  69.9990 231.1357 0003607 268.2560  91.8185 14.98326949205580
STARLINK-3084           
1 49136U 21082G   25157.63876124  .00001431  00000+0  13036-3 0  9997
2 49136  69.9993 250.5092 0003066 264.1656  95.9153 14.97509934205132
STARLINK-3055           
1 49137U 21082H   25157.62786924  .00000903  00000+0  83471-4 0  9999
2 49137  69.9994 250.4994 0003441 268.1178  91.9587 14.98330144205126
STARLINK-3058           
1 49138U 21082J   25157.59474102  .00003292  00000+0  28365-3 0  9992
2 49138  69.9990 270.5930 0003480 274.7882  85.2880 14.98318291204629
STARLINK-3057           
1 49139U 21082K   25157.49413536  .00000800  00000+0  74850-4 0  9999
2 49139  69.9986 230.8268 0003582 268.8395  91.2354 14.98323182205599
STARLINK-3093           
1 49141U 21082M   25157.72407060  .00001178  00000+0  10651-3 0  9990
2 49141  69.9992 270.2701 0003487 268.7189  91.3570 14.98330623205840
STARLINK-3109           
1 49143U 21082P   25157.62370319  .00001606  00000+0  14237-3 0  9997
2 49143  69.9990 250.5135 0003326 270.9630  89.1148 14.98328591205117
STARLINK-3100           
1 49144U 21082Q   25157.71572659  .00001738  00000+0  15341-3 0  9992
2 49144  69.9990 270.2697 0003365 267.2619  92.8155 14.98329944204648
STARLINK-3119           
1 49145U 21082R   25157.46491126  .00000110  00000+0  16990-4 0  9999
2 49145  69.9998 230.8982 0003453 272.0994  87.9769 14.98322214205587
STARLINK-3116           
1 49146U 21082S   25157.55276755  .00002227  00000+0  19436-3 0  9997
2 49146  70.0003 250.6956 0003666 267.8771  92.1968 14.98332719206266
STARLINK-3071           
1 49147U 21082T   25157.61096706  .00001611  00000+0  14281-3 0  9990
2 49147  69.9992 230.5464 0003402 284.0377  76.0403 14.98320721206785
STARLINK-3048           
1 49148U 21082U   25157.61117357 -.00002968  00000+0 -24104-3 0  9990
2 49148  70.0002 250.5270 0003100 266.4425  93.6380 14.98331444206245
STARLINK-3102           
1 49151U 21082X   25157.45657314  .00001727  00000+0  15255-3 0  9995
2 49151  69.9989 230.9256 0003536 269.8043  90.2711 14.98326427206787
STARLINK-3072           
1 49153U 21082Z   25157.58175716 -.00000674  00000+0 -48715-4 0  9992
2 49153  70.0012 230.6198 0003165 271.7167  88.3630 14.98323963205608
STARLINK-3068           
1 49154U 21082AA  25157.60702430  .00001868  00000+0  16438-3 0  9995
2 49154  69.9990 250.5417 0003816 265.6841  94.3882 14.98312472206194
STARLINK-3060           
1 49155U 21082AB  25157.37728719  .00001232  00000+0  11106-3 0  9990
2 49155  69.9990 231.1248 0003283 267.9830  92.0954 14.98329429206659
STARLINK-3085           
1 49156U 21082AC  25157.48995823 -.00001079  00000+0 -82696-4 0  9999
2 49156  69.9987 230.8409 0002784 273.5680  86.5161 14.98327335206676
STARLINK-3051           
1 49157U 21082AD  25157.66962161 -.00000895  00000+0 -67312-4 0  9992
2 49157  69.9988 250.3871 0002704 253.8027 106.2834 14.98305970206225
STARLINK-3083           
1 49158U 21082AE  25157.56469808  .00019031  00000+0  56262-3 0  9993
2 49158  69.9830 205.7001 0005628 244.7328 115.3267 15.34925063207327
STARLINK-3056           
1 49159U 21082AF  25157.76996949  .00001326  00000+0  11895-3 0  9998
2 49159  69.9991 270.1428 0003249 271.3212  88.7575 14.98327430205742
STARLINK-3095           
1 49160U 21082AG  25157.62393342  .00001459  00000+0  13004-3 0  9994
2 49160  69.9991 270.4939 0003308 272.2660  87.8120 14.98325983205700
STARLINK-3080           
1 49161U 21082AH  25157.76162526 -.00000170  00000+0 -64323-5 0  9991
2 49161  69.9996 270.1429 0003310 268.8979  91.1800 14.98329227205724
STARLINK-3088           
1 49163U 21082AK  25157.39421401  .00001256  00000+0  11309-3 0  9990
2 49163  69.9988 251.0885 0003210 264.7482  95.3311 14.98324938206249
STARLINK-3106           
1 49164U 21082AL  25157.51816991  .00002718  00000+0  23402-3 0  9998
2 49164  70.0004 250.7753 0003869 268.1445  91.9271 14.98569888206274
STARLINK-3052           
1 49165U 21082AM  25157.35272176  .00000146  00000+0  20077-4 0  9991
2 49165  69.9995 271.2093 0003678 267.5047  92.5690 14.98328048205783
STARLINK-3089           
1 49166U 21082AN  25157.52356016  .00000713  00000+0  67548-4 0  9991
2 49166  69.9992 250.7659 0003222 267.5590  92.5200 14.98324704206300
STARLINK-3054           
1 49167U 21082AP  25157.74494722  .00001618  00000+0  14343-3 0  9992
2 49167  69.9990 270.1990 0003174 271.2933  88.7862 14.98319855205853
STARLINK-3046           
1 49169U 21082AR  25157.38169367  .00001222  00000+0  11020-3 0  9998
2 49169  69.9991 251.1304 0003524 265.5367  94.5389 14.98326769205086
STARLINK-3107           
1 49171U 21082AT  25157.60229586  .00008619  00000+0  71580-3 0  9990
2 49171  70.0000 270.5437 0004229 271.6912  88.3763 14.99047031205789
STARLINK-3045           
1 49173U 21082AV  25157.50270427  .00001661  00000+0  14701-3 0  9993
2 49173  69.9993 250.8074 0003312 270.9497  89.1282 14.98321725205104
STARLINK-3047           
1 49174U 21082AW  25157.60004977  .00049237  00000+0  99664-3 0  9992
2 49174  69.9867 213.2597 0005934 244.9753 115.0815 15.46164372207218
STARLINK-3087           
1 49175U 21082AX  25157.60535460  .00001002  00000+0  93635-4 0  9990
2 49175  69.9987 250.6049 0003306 268.4243  91.6537 14.97520891205119
STARLINK-3069           
1 49176U 21082AY  25157.58592204  .00001143  00000+0  10357-3 0  9992
2 49176  69.9990 230.6030 0003483 271.2513  88.8246 14.98323739205602
STARLINK-3103           
1 49177U 21082AZ  25157.47327253 -.00000559  00000+0 -39067-4 0  9993
2 49177  69.9987 230.8973 0003139 261.2456  98.8348 14.98316158206781
STARLINK-3086           
1 49178U 21082BA  25157.63227111 -.00003566  00000+0 -29126-3 0  9999
2 49178  70.0004 270.4773 0002811 267.7117  92.3720 14.98327265205787
STARLINK-3043           
1 49179U 21082BB  25157.46073450 -.00002490  00000+0 -20095-3 0  9997
2 49179  70.0009 230.9129 0003359 260.2233  99.8547 14.98326928205586
STARLINK-3050           
1 49180U 21082BC  25157.51105150  .00001923  00000+0  16896-3 0  9990
2 49180  69.9993 250.7918 0003627 269.7665  90.3079 14.98321659206273
STARLINK-3059           
1 49181U 21082BD  25157.74910648  .00001754  00000+0  15473-3 0  9994
2 49181  69.9990 270.1969 0003257 271.7578  88.3208 14.98330895205810
ONEWEB-0292             
1 49186U 21083A   25157.38147016 -.00000345  00000+0 -97887-3 0  9997
2 49186  87.8982  34.9473 0001800  75.6103 284.5226 13.13469576181591
ONEWEB-0303             
1 49187U 21083B   25157.71627998  .00000020  00000+0  17450-4 0  9994
2 49187  87.9157  50.0728 0001862  72.2351 287.8984 13.18686254181771
ONEWEB-0306             
1 49188U 21083C   25157.40328719  .00000086  00000+0  18561-3 0  9995
2 49188  87.9157  50.1198 0001908  84.1846 275.9503 13.18686438180493
ONEWEB-0307             
1 49189U 21083D   25157.90879742 -.00000239  00000+0 -68874-3 0  9992
2 49189  87.8985  34.8464 0002088  88.4383 271.6986 13.13468986182952
ONEWEB-0320             
1 49190U 21083E   25157.71311297  .00000013  00000+0  61660-6 0  9996
2 49190  87.9156  50.0877 0001911  78.3864 281.7482 13.18687099181774
ONEWEB-0321             
1 49191U 21083F   25157.52301117  .00000021  00000+0  20068-4 0  9990
2 49191  87.9259 349.2548 0001917  99.1048 261.0302 13.20771670187240
ONEWEB-0322             
1 49192U 21083G   25157.37133563 -.00000175  00000+0 -51533-3 0  9994
2 49192  87.8984  34.9426 0001879  93.4970 266.6374 13.13471488181583
ONEWEB-0324             
1 49193U 21083H   25157.39537798  .00000102  00000+0  22488-3 0  9990
2 49193  87.9157  50.1295 0002067  76.9509 283.1854 13.18687852180478
ONEWEB-0325             
1 49194U 21083J   25157.40011841  .00000084  00000+0  17989-3 0  9998
2 49194  87.9156  50.1460 0001857  81.8059 278.3284 13.18688026180481
ONEWEB-0326             
1 49195U 21083K   25157.41448025  .00000092  00000+0  20029-3 0  9996
2 49195  87.9155  50.1335 0001797  66.3710 293.7611 13.18687930180474
ONEWEB-0327             
1 49196U 21083L   25157.71773184  .00000033  00000+0  52136-4 0  9997
2 49196  87.9157  50.1019 0001754  69.7644 290.3676 13.18685850181814
